ATLAS CENTAUR R/B       
1 06155U 72065B   25342.74007664  .00002598  00000+0  35887-3 0  9994
2 06155  35.0006 118.6259 0034355 324.2419  35.5982 14.77392648827808
SL-8 R/B                
1 08459U 75112B   25342.86552443  .00000549  00000+0  18925-3 0  9990
2 08459  74.0595 185.9843 0016538 297.7218  62.2258 14.38141871618812
SL-3 R/B                
1 10114U 77057B   25342.79982177  .00017557  00000+0  40241-3 0  9997
2 10114  97.5686 145.9750 0006390 249.3900 110.6662 15.42803666654307
SEASAT 1                
1 10967U 78064A   25342.80837294  .00000964  00000+0  30827-3 0  9996
2 10967 108.0109 294.7861 0001726 249.7818 110.3142 14.46055856493378
SL-14 R/B               
1 11267U 79011B   25342.62931266  .00001077  00000+0  10420-3 0  9990
2 11267  82.5238 182.9427 0016288   7.1632 352.9816 14.91762920515202
SL-8 R/B                
1 11574U 79089B   25342.81325029  .00000650  00000+0  20458-3 0  9999
2 11574  74.0693 259.2460 0014436  95.3297 264.9507 14.42280204423009
SL-14 R/B               
1 11672U 80005B   25342.64971291  .00001134  00000+0  11253-3 0  9998
2 11672  82.5153  33.5783 0017271 105.8863 254.4261 14.90785336462924
SL-8 R/B                
1 12139U 81003B   25342.81989623  .00022081  00000+0  58664-3 0  9994
2 12139  82.9285  13.8109 0280201 133.7123 228.7692 15.06866961300970
SL-3 R/B                
1 12465U 81046B   25342.79470264  .00014235  00000+0  35968-3 0  9990
2 12465  81.2329  38.6568 0019158 338.4664  21.5769 15.39485334424431
SL-3 R/B                
1 12904U 81103B   25342.77656382  .00009216  00000+0  42405-3 0  9994
2 12904  81.1589 319.9949 0011295 228.1745 131.8523 15.20157735959418
SL-3 R/B                
1 13068U 82013B   25342.82792669  .00007107  00000+0  31666-3 0  9996
2 13068  81.1749 267.1876 0023968 123.1851 237.1684 15.21029047390538
SL-3 R/B                
1 13154U 82039B   25342.79464054  .00005369  00000+0  33032-3 0  9997
2 13154  81.1728 320.6352 0029884 265.7755  94.0055 15.09490416367921
