CCSDS_OMM_VERS = 2.0
CREATION_DATE  = 
ORIGINATOR     = 

OBJECT_NAME    = ATLAS CENTAUR R/B
OBJECT_ID      = 1972-065B
CENTER_NAME    = EARTH
REF_FRAME      = TEME
TIME_SYSTEM    = UTC
MEAN_ELEMENT_THEORY = SGP/SGP4

EPOCH          = 2025-12-08T17:45:42.621696
MEAN_MOTION    = 14.77392648
ECCENTRICITY   = .0034355
INCLINATION    = 35.0006
RA_OF_ASC_NODE = 118.6259
ARG_OF_PERICENTER = 324.2419
MEAN_ANOMALY   = 35.5982

EPHEMERIS_TYPE = 0
CLASSIFICATION_TYPE = U
NORAD_CAT_ID   = 6155
ELEMENT_SET_NO = 999
REV_AT_EPOCH   = 82780
BSTAR          = .35887E-3
MEAN_MOTION_DOT = .2598E-4
MEAN_MOTION_DDOT = 0

CCSDS_OMM_VERS = 2.0
CREATION_DATE  = 
ORIGINATOR     = 

OBJECT_NAME    = SL-8 R/B
OBJECT_ID      = 1975-112B
CENTER_NAME    = EARTH
REF_FRAME      = TEME
TIME_SYSTEM    = UTC
MEAN_ELEMENT_THEORY = SGP/SGP4

EPOCH          = 2025-12-08T20:46:21.310752
MEAN_MOTION    = 14.38141871
ECCENTRICITY   = .0016538
INCLINATION    = 74.0595
RA_OF_ASC_NODE = 185.9843
ARG_OF_PERICENTER = 297.7218
MEAN_ANOMALY   = 62.2258

EPHEMERIS_TYPE = 0
CLASSIFICATION_TYPE = U
NORAD_CAT_ID   = 8459
ELEMENT_SET_NO = 999
REV_AT_EPOCH   = 61881
BSTAR          = .18925E-3
MEAN_MOTION_DOT = .549E-5
MEAN_MOTION_DDOT = 0

CCSDS_OMM_VERS = 2.0
CREATION_DATE  = 
ORIGINATOR     = 

OBJECT_NAME    = SL-3 R/B
OBJECT_ID      = 1977-057B
CENTER_NAME    = EARTH
REF_FRAME      = TEME
TIME_SYSTEM    = UTC
MEAN_ELEMENT_THEORY = SGP/SGP4

EPOCH          = 2025-12-08T19:11:44.600928
MEAN_MOTION    = 15.42803666
ECCENTRICITY   = .000639
INCLINATION    = 97.5686
RA_OF_ASC_NODE = 145.9750
ARG_OF_PERICENTER = 249.3900
MEAN_ANOMALY   = 110.6662

EPHEMERIS_TYPE = 0
CLASSIFICATION_TYPE = U
NORAD_CAT_ID   = 10114
ELEMENT_SET_NO = 999
REV_AT_EPOCH   = 65430
BSTAR          = .40241E-3
MEAN_MOTION_DOT = .17557E-3
MEAN_MOTION_DDOT = 0

CCSDS_OMM_VERS = 2.0
CREATION_DATE  = 
ORIGINATOR     = 

OBJECT_NAME    = SEASAT 1
OBJECT_ID      = 1978-064A
CENTER_NAME    = EARTH
REF_FRAME      = TEME
TIME_SYSTEM    = UTC
MEAN_ELEMENT_THEORY = SGP/SGP4

EPOCH          = 2025-12-08T19:24:03.422016
MEAN_MOTION    = 14.46055856
ECCENTRICITY   = .0001726
INCLINATION    = 108.0109
RA_OF_ASC_NODE = 294.7861
ARG_OF_PERICENTER = 249.7818
MEAN_ANOMALY   = 110.3142

EPHEMERIS_TYPE = 0
CLASSIFICATION_TYPE = U
NORAD_CAT_ID   = 10967
ELEMENT_SET_NO = 999
REV_AT_EPOCH   = 49337
BSTAR          = .30827E-3
MEAN_MOTION_DOT = .964E-5
MEAN_MOTION_DDOT = 0

CCSDS_OMM_VERS = 2.0
CREATION_DATE  = 
ORIGINATOR     = 

OBJECT_NAME    = SL-14 R/B
OBJECT_ID      = 1979-011B
CENTER_NAME    = EARTH
REF_FRAME      = TEME
TIME_SYSTEM    = UTC
MEAN_ELEMENT_THEORY = SGP/SGP4

EPOCH          = 2025-12-08T15:06:12.613824
MEAN_MOTION    = 14.91762920
ECCENTRICITY   = .0016288
INCLINATION    = 82.5238
RA_OF_ASC_NODE = 182.9427
ARG_OF_PERICENTER = 7.1632
MEAN_ANOMALY   = 352.9816

EPHEMERIS_TYPE = 0
CLASSIFICATION_TYPE = U
NORAD_CAT_ID   = 11267
ELEMENT_SET_NO = 999
REV_AT_EPOCH   = 51520
BSTAR          = .1042E-3
MEAN_MOTION_DOT = .1077E-4
MEAN_MOTION_DDOT = 0

CCSDS_OMM_VERS = 2.0
CREATION_DATE  = 
ORIGINATOR     = 

OBJECT_NAME    = SL-8 R/B
OBJECT_ID      = 1979-089B
CENTER_NAME    = EARTH
REF_FRAME      = TEME
TIME_SYSTEM    = UTC
MEAN_ELEMENT_THEORY = SGP/SGP4

EPOCH          = 2025-12-08T19:31:04.825056
MEAN_MOTION    = 14.42280204
ECCENTRICITY   = .0014436
INCLINATION    = 74.0693
RA_OF_ASC_NODE = 259.2460
ARG_OF_PERICENTER = 95.3297
MEAN_ANOMALY   = 264.9507

EPHEMERIS_TYPE = 0
CLASSIFICATION_TYPE = U
NORAD_CAT_ID   = 11574
ELEMENT_SET_NO = 999
REV_AT_EPOCH   = 42300
BSTAR          = .20458E-3
MEAN_MOTION_DOT = .65E-5
MEAN_MOTION_DDOT = 0

CCSDS_OMM_VERS = 2.0
CREATION_DATE  = 
ORIGINATOR     = 

OBJECT_NAME    = SL-14 R/B
OBJECT_ID      = 1980-005B
CENTER_NAME    = EARTH
REF_FRAME      = TEME
TIME_SYSTEM    = UTC
MEAN_ELEMENT_THEORY = SGP/SGP4

EPOCH          = 2025-12-08T15:35:35.195424
MEAN_MOTION    = 14.90785336
ECCENTRICITY   = .0017271
INCLINATION    = 82.5153
RA_OF_ASC_NODE = 33.5783
ARG_OF_PERICENTER = 105.8863
MEAN_ANOMALY   = 254.4261

EPHEMERIS_TYPE = 0
CLASSIFICATION_TYPE = U
NORAD_CAT_ID   = 11672
ELEMENT_SET_NO = 999
REV_AT_EPOCH   = 46292
BSTAR          = .11253E-3
MEAN_MOTION_DOT = .1134E-4
MEAN_MOTION_DDOT = 0

CCSDS_OMM_VERS = 2.0
CREATION_DATE  = 
ORIGINATOR     = 

OBJECT_NAME    = SL-8 R/B
OBJECT_ID      = 1981-003B
CENTER_NAME    = EARTH
REF_FRAME      = TEME
TIME_SYSTEM    = UTC
MEAN_ELEMENT_THEORY = SGP/SGP4

EPOCH          = 2025-12-08T19:40:39.034272
MEAN_MOTION    = 15.06866961
ECCENTRICITY   = .0280201
INCLINATION    = 82.9285
RA_OF_ASC_NODE = 13.8109
ARG_OF_PERICENTER = 133.7123
MEAN_ANOMALY   = 228.7692

EPHEMERIS_TYPE = 0
CLASSIFICATION_TYPE = U
NORAD_CAT_ID   = 12139
ELEMENT_SET_NO = 999
REV_AT_EPOCH   = 30097
BSTAR          = .58664E-3
MEAN_MOTION_DOT = .22081E-3
MEAN_MOTION_DDOT = 0

CCSDS_OMM_VERS = 2.0
CREATION_DATE  = 
ORIGINATOR     = 

OBJECT_NAME    = SL-3 R/B
OBJECT_ID      = 1981-046B
CENTER_NAME    = EARTH
REF_FRAME      = TEME
TIME_SYSTEM    = UTC
MEAN_ELEMENT_THEORY = SGP/SGP4

EPOCH          = 2025-12-08T19:04:22.308096
MEAN_MOTION    = 15.39485334
ECCENTRICITY   = .0019158
INCLINATION    = 81.2329
RA_OF_ASC_NODE = 38.6568
ARG_OF_PERICENTER = 338.4664
MEAN_ANOMALY   = 21.5769

EPHEMERIS_TYPE = 0
CLASSIFICATION_TYPE = U
NORAD_CAT_ID   = 12465
ELEMENT_SET_NO = 999
REV_AT_EPOCH   = 42443
BSTAR          = .35968E-3
MEAN_MOTION_DOT = .14235E-3
MEAN_MOTION_DDOT = 0

CCSDS_OMM_VERS = 2.0
CREATION_DATE  = 
ORIGINATOR     = 

OBJECT_NAME    = SL-3 R/B
OBJECT_ID      = 1981-103B
CENTER_NAME    = EARTH
REF_FRAME      = TEME
TIME_SYSTEM    = UTC
MEAN_ELEMENT_THEORY = SGP/SGP4

EPOCH          = 2025-12-08T18:38:15.114048
MEAN_MOTION    = 15.20157735
ECCENTRICITY   = .0011295
INCLINATION    = 81.1589
RA_OF_ASC_NODE = 319.9949
ARG_OF_PERICENTER = 228.1745
MEAN_ANOMALY   = 131.8523

EPHEMERIS_TYPE = 0
CLASSIFICATION_TYPE = U
NORAD_CAT_ID   = 12904
ELEMENT_SET_NO = 999
REV_AT_EPOCH   = 95941
BSTAR          = .42405E-3
MEAN_MOTION_DOT = .9216E-4
MEAN_MOTION_DDOT = 0

CCSDS_OMM_VERS = 2.0
CREATION_DATE  = 
ORIGINATOR     = 

OBJECT_NAME    = SL-3 R/B
OBJECT_ID      = 1982-013B
CENTER_NAME    = EARTH
REF_FRAME      = TEME
TIME_SYSTEM    = UTC
MEAN_ELEMENT_THEORY = SGP/SGP4

EPOCH          = 2025-12-08T19:52:12.866016
MEAN_MOTION    = 15.21029047
ECCENTRICITY   = .0023968
INCLINATION    = 81.1749
RA_OF_ASC_NODE = 267.1876
ARG_OF_PERICENTER = 123.1851
MEAN_ANOMALY   = 237.1684

EPHEMERIS_TYPE = 0
CLASSIFICATION_TYPE = U
NORAD_CAT_ID   = 13068
ELEMENT_SET_NO = 999
REV_AT_EPOCH   = 39053
BSTAR          = .31666E-3
MEAN_MOTION_DOT = .7107E-4
MEAN_MOTION_DDOT = 0

CCSDS_OMM_VERS = 2.0
CREATION_DATE  = 
ORIGINATOR     = 

OBJECT_NAME    = SL-3 R/B
OBJECT_ID      = 1982-039B
CENTER_NAME    = EARTH
REF_FRAME      = TEME
TIME_SYSTEM    = UTC
MEAN_ELEMENT_THEORY = SGP/SGP4

EPOCH          = 2025-12-08T19:04:16.942656
MEAN_MOTION    = 15.09490416
ECCENTRICITY   = .0029884
INCLINATION    = 81.1728
RA_OF_ASC_NODE = 320.6352
ARG_OF_PERICENTER = 265.7755
MEAN_ANOMALY   = 94.0055

EPHEMERIS_TYPE = 0
CLASSIFICATION_TYPE = U
NORAD_CAT_ID   = 13154
ELEMENT_SET_NO = 999
REV_AT_EPOCH   = 36792
BSTAR          = .33032E-3
MEAN_MOTION_DOT = .5369E-4
MEAN_MOTION_DDOT = 0

